43806,   solution date   
43807,  2016-Dec-08 06:15:43  
43808,Additional Information
43809, Earth MOID = .0294769 au 
43810, Jupiter MOID = 3.93211 au 
43811, T_jup = 5.449 
43812,Physical Parameter Table
43813,Parameter
43814,Symbol
43815,Value
43816,Units
43817,Sigma
43818,Reference
43819,Notes
43820,absolute magnitude
43821,H
43822,22.0
43823,mag
43824,n/a
43825,MPO393561
43826, 
43827,Search JPL
43828,Orbital Elements at Epoch 2457800.5 (2017-Feb-16.0) TDB
43829,Reference: JPL 18 (heliocentric ecliptic J2000)
43830,JPL 18
43831, Element
43832,Value
43833,Uncertainty (1-sigma) 
43834, Units 
43835,e
43836,.5153311351377479
43837,1.8781e-06
43838, 
43839,a
43840,.9176791251070563
43841,2.8879e-07
43842,au
43843,q
43844,.4447704998734217
43845,1.8297e-06
43846,au
43847,i
43848,53.63043010275275
43849,0.00042773
43850,deg
43851,node
43852,346.281113051708
43853,0.00016996
43854,deg
43855,peri
43856,311.9500586578041
43857,0.00016309
43858,deg
43859,M
43860,122.3014268088983
43861,0.00091459
43862,deg
43863,tp
43864,2457691.415328316783(2016-Oct-29.91532832)
43865,0.00076498
43866,JED
43867,period
43868,321.09585988166720.88
43869,0.000151574.15e-07
43870,dyr
43871,n
43872,1.121160516154491
43873,5.2924e-07
43874,deg/d
43875,Q
43876,1.390587750340691
43877,4.3761e-07
43878,au
43879,Orbit Determination Parameters
43880,   # obs. used (total)   
43881,  73  
43882,   data-arc span   
43883,  329 days  
43884,   first obs. used   
43885,  2012-02-28  
43886,   last obs. used   
43887,  2013-01-22  
43888,   planetary ephem.   
43889,  DE431  
43890,   SB-pert. ephem.   
43891,  SB431-BIG16  
43892,   condition code   
43893,  2  
43894,   fit RMS   
43895,  .48529  
43896,   data source   
43897,  ORB  
43898,   producer   
43899,  Otto Matic  
43900,   solution date   
43901,  2014-Jun-13 15:44:24  
43902,Additional Information
43903, Earth MOID = .0286093 au 
43904, Jupiter MOID = 4.17209 au 
43905, T_jup = 6.097 
43906,Physical Parameter Table
43907,Parameter
43908,Symbol
43909,Value
43910,Units
43911,Sigma
43912,Reference
43913,Notes
43914,absolute magnitude
43915,H
43916,19.9
43917,mag
43918,n/a
43919,MPO260828
43920, 
43921,Search JPL
43922,Orbital Elements at Epoch 2457800.5 (2017-Feb-16.0) TDB
43923,Reference: JPL 15 (heliocentric ecliptic J2000)
43924,JPL 15
43925, Element
43926,Value
43927,Uncertainty (1-sigma) 
43928, Units 
43929,e
43930,.5765643671415562
43931,1.5303e-06
43932, 
43933,a
43934,.6937086292877171
43935,8.3614e-08
43936,au
43937,q
43938,.2937409524618081
43939,1.0263e-06
43940,au
43941,i
43942,11.16774445441178
43943,0.000106
43944,deg
43945,node
43946,165.2856777122253
43947,7.1824e-05
43948,deg
43949,peri
43950,149.2041799971681
43951,3.6353e-05
43952,deg
43953,M
43954,93.08239915374779
43955,8.4712e-05
43956,deg
43957,tp
43958,2457745.933117825942(2016-Dec-23.43311783)
43959,4.1032e-05
43960,JED
43961,period
43962,211.03965691960920.58
43963,3.8156e-051.045e-07
43964,dyr
43965,n
43966,1.705840529001305
43967,3.0841e-07
43968,deg/d
43969,Q
43970,1.093676306113626
43971,1.3182e-07
43972,au
43973,Orbit Determination Parameters
43974,   # obs. used (total)   
43975,  139  
43976,   data-arc span   
43977,  1452 days (3.98 yr)  
43978,   first obs. used   
43979,  2012-02-24  
43980,   last obs. used   
43981,  2016-02-15  
43982,   planetary ephem.   
43983,  DE431  
43984,   SB-pert. ephem.   
43985,  SB431-BIG16  
43986,   condition code   
43987,  2  
43988,   fit RMS   
43989,  .50847  
43990,   data source   
43991,  ORB  
43992,   producer   
43993,  Otto Matic  
43994,   solution date   
43995,  2016-Feb-25 15:49:05  
43996,Additional Information
43997, Earth MOID = .025354 au 
43998, Jupiter MOID = 4.20191 au 
43999, T_jup = 8.086 
44000,Physical Parameter Table
44001,Parameter
44002,Symbol
44003,Value
44004,Units
44005,Sigma
44006,Reference
44007,Notes
44008,absolute magnitude
44009,H
44010,21.8
44011,mag
44012,n/a
44013,MPO227521
44014, 
44015,Search JPL
44016,Orbital Elements at Epoch 2457800.5 (2017-Feb-16.0) TDB
44017,Reference: JPL 5 (heliocentric ecliptic J2000)
44018,JPL 5
44019, Element
44020,Value
44021,Uncertainty (1-sigma) 
44022, Units 
44023,e
44024,.3728192271783158
44025,0.00050137
44026, 
44027,a
44028,1.150295097910303
44029,0.00077392
44030,au
44031,q
44032,.721442968480379
44033,9.4367e-05
44034,au
44035,i
44036,29.69208343239303
44037,0.037035
44038,deg
44039,node
44040,141.6701706470905
44041,0.0048206
44042,deg
44043,peri
44044,262.1757366689028
44045,0.040908
44046,deg
44047,M
44048,79.41837730122357
44049,1.5911
44050,deg
44051,tp
44052,2457701.089824889259(2016-Nov-08.58982489)
44053,1.8913
44054,JED
44055,period
44056,450.62193733987891.23
44057,0.454770.001245
44058,dyr
44059,n
44060,.798895859631601
44061,0.00080625
44062,deg/d
44063,Q
44064,1.579147227340228
44065,0.0010625
44066,au
44067,Orbit Determination Parameters
44068,   # obs. used (total)   
44069,  39  
44070,   data-arc span   
44071,  22 days  
44072,   first obs. used   
44073,  2012-02-24  
44074,   last obs. used   
44075,  2012-03-17  
44076,   planetary ephem.   
44077,  DE431  
44078,   SB-pert. ephem.   
44079,  SB431-BIG16  
44080,   condition code   
44081,  7  
44082,   fit RMS   
44083,  .81692  
44084,   data source   
44085,  ORB  
44086,   producer   
44087,  Otto Matic  
44088,   solution date   
44089,  2014-Jun-13 15:42:45  
44090,Additional Information
44091, Earth MOID = .0444753 au 
44092, Jupiter MOID = 4.01961 au 
44093, T_jup = 5.281 
44094,Physical Parameter Table
44095,Parameter
44096,Symbol
44097,Value
44098,Units
44099,Sigma
44100,Reference
44101,Notes
44102,absolute magnitude
44103,H
44104,21.9
44105,mag
44106,n/a
44107,MPO227521
44108, 
44109,Search JPL
44110,Orbital Elements at Epoch 2457800.5 (2017-Feb-16.0) TDB
44111,Reference: JPL 24 (heliocentric ecliptic J2000)
44112,JPL 24
44113, Element
44114,Value
44115,Uncertainty (1-sigma) 
44116, Units 
44117,e
44118,.4789117640493657
44119,9.1262e-06
44120, 
44121,a
44122,1.801554486847827
44123,2.9377e-05
44124,au
44125,q
44126,.9387688495204844
44127,1.1349e-06
44128,au
44129,i
44130,8.642313791130645
44131,0.00013446
44132,deg
44133,node
44134,175.9513067361177
44135,7.3478e-05
44136,deg
44137,peri
44138,41.36101048788639
44139,0.00013803
44140,deg
44141,M
44142,357.5320521599749
44143,0.017544
44144,deg
44145,tp
44146,2457806.554844654407(2017-Feb-22.05484465)
44147,0.04319
44148,JED
44149,period
44150,883.2212902701372.42
44151,0.0216035.915e-05
44152,dyr
44153,n
44154,.4075988701426032
44155,9.9697e-06
44156,deg/d
44157,Q
44158,2.664340124175169
44159,4.3446e-05
44160,au
44161,Orbit Determination Parameters
44162,   # obs. used (total)   
44163,  144  
44164,   data-arc span   
44165,  191 days  
44166,   first obs. used   
44167,  2012-02-01  
44168,   last obs. used   
44169,  2012-08-10  
44170,   planetary ephem.   
44171,  DE431  
44172,   SB-pert. ephem.   
44173,  SB431-BIG16  
44174,   condition code   
44175,  4  
44176,   fit RMS   
44177,  .69669  
44178,   data source   
44179,  ORB  
44180,   producer   
44181,  Otto Matic  
44182,   solution date   
44183,  2014-Jun-13 15:41:03  
44184,Additional Information
44185, Earth MOID = .0140047 au 
44186, Jupiter MOID = 2.32368 au 
44187, T_jup = 3.910 
44188,Physical Parameter Table
44189,Parameter
44190,Symbol
44191,Value
44192,Units
44193,Sigma
44194,Reference
44195,Notes
44196,absolute magnitude
44197,H
44198,21.9
44199,mag
44200,n/a
44201,MPO236313
44202, 
44203,Search JPL
44204,Orbital Elements at Epoch 2457800.5 (2017-Feb-16.0) TDB
44205,Reference: JPL 28 (heliocentric ecliptic J2000)
44206,JPL 28
44207, Element
44208,Value
44209,Uncertainty (1-sigma) 
44210, Units 
44211,e
44212,.6593844353318374
44213,4.1557e-06
44214, 
44215,a
44216,2.651762180458557
44217,3.1367e-05
44218,au
44219,q
44220,.9032314724625694
44221,3.5627e-07
44222,au
44223,i
44224,28.87226404333916
44225,0.00011731
44226,deg
44227,node
44228,128.1462700776912
44229,0.00012032
44230,deg
44231,peri
44232,35.58145615808886
44233,9.281e-05
44234,deg
44235,M
44236,49.69307068010032
44237,0.0073542
44238,deg
44239,tp
44240,2457582.782359721558(2016-Jul-13.28235972)
44241,0.028358
44242,JED
44243,period
44244,1577.2490898137634.32
44245,0.0279857.662e-05
44246,dyr
44247,n
44248,.2282454954800498
44249,4.0497e-06
44250,deg/d
44251,Q
44252,4.400292888454545
44253,5.2049e-05
44254,au
44255,Orbit Determination Parameters
44256,   # obs. used (total)   
44257,  131  
44258,   data-arc span   
44259,  161 days  
44260,   first obs. used   
44261,  2012-02-12  
44262,   last obs. used   
44263,  2012-07-22  
44264,   planetary ephem.   
44265,  DE431  
44266,   SB-pert. ephem.   
44267,  SB431-BIG16  
44268,   condition code   
44269,  3  
44270,   fit RMS   
44271,  .51231  
44272,   data source   
44273,  ORB  
44274,   producer   
44275,  Otto Matic  
44276,   solution date   
44277,  2014-Jun-13 15:39:33  
44278,Additional Information
44279, Earth MOID = .00801631 au 
44280, Jupiter MOID = 1.14019 au 
44281, T_jup = 2.902 
44282,Physical Parameter Table
44283,Parameter
44284,Symbol
44285,Value
44286,Units
44287,Sigma
44288,Reference
44289,Notes
44290,absolute magnitude
44291,H
44292,19.1
44293,mag
44294,n/a
44295,MPO235399
44296, 
44297,Search JPL
44298,Orbital Elements at Epoch 2456626.5 (2013-Nov-30.0) TDB
44299,Reference: JPL 27 (heliocentric ecliptic J2000)
44300,JPL 27
44301, Element
44302,Value
44303,Uncertainty (1-sigma) 
44304, Units 
44305,e
44306,.2110598971410373
44307,9.4998e-08
44308, 
44309,a
44310,1.154862068246004
44311,5.9789e-09
44312,au
44313,q
44314,.9111169989099169
44315,1.1065e-07
44316,au
44317,i
44318,15.78859979156215
44319,1.8298e-05
44320,deg
44321,node
44322,137.6946986353404
44323,1.0131e-05
44324,deg
44325,peri
44326,122.7346134971757
44327,3.7355e-05
44328,deg
44329,M
44330,65.05035717796407
44331,3.7314e-05
44332,deg
44333,tp
44334,2456544.589271739546(2013-Sep-09.08927174)
44335,4.7124e-05
44336,JED
44337,period
44338,453.30822847122671.24
